{"type": "FeatureCollection", "features": [{"type": "Feature", "properties": {"norad_id": 28054, "name": "DMSP 5D-3 F16 (USA 172)", "group": "weather", "lat": 41.2452463995132, "lon": -15.461658024745141, "alt_km": 837.4238564332745, "timestamp": "2025-12-01T03:58:49.195069+00:00", "meta": {"OBJECT_NAME": "DMSP 5D-3 F16 (USA 172)", "OBJECT_ID": "2003-048A", "EPOCH": "2025-11-30T20:06:34.476192", "MEAN_MOTION": 14.14417219, "ECCENTRICITY": 0.0007007, "INCLINATION": 99.0056, "RA_OF_ASC_NODE": 352.2008, "ARG_OF_PERICENTER": 356.8098, "MEAN_ANOMALY": 176.1378, "EPHEMERIS_TYPE": 0, "CLASSIFICATION_TYPE": "U", "NORAD_CAT_ID": 28054, "ELEMENT_SET_NO": 999, "REV_AT_EPOCH": 14144, "BSTAR": 9.9176e-05, "MEAN_MOTION_DOT": 1.44e-06, "MEAN_MOTION_DDOT": 0, "GROUP": "weather"}, "tle": {"line1": "1 28054U 03048A   25334.83789903  .00000144  00000+0  99176-4 0  9992", "line2": "2 28054  99.0056 352.2008 0007007 356.8098 176.1378 14.14417219141444"}}, "geometry": {"type": "Point", "coordinates": [-15.461658024745141, 41.2452463995132]}}, {"type": "Feature", "properties": {"norad_id": 28912, "name": "METEOSAT-9 (MSG-2)", "group": "weather", "lat": 7.741864256213203, "lon": 175.84037260160474, "alt_km": 35778.20381095194, "timestamp": "2025-12-01T03:58:49.195116+00:00", "meta": {"OBJECT_NAME": "METEOSAT-9 (MSG-2)", "OBJECT_ID": "2005-049B", "EPOCH": "2025-11-30T19:11:54.733920", "MEAN_MOTION": 1.00270478, "ECCENTRICITY": 0.0003917, "INCLINATION": 8.9104, "RA_OF_ASC_NODE": 56.0832, "ARG_OF_PERICENTER": 183.6616, "MEAN_ANOMALY": 163.7686, "EPHEMERIS_TYPE": 0, "CLASSIFICATION_TYPE": "U", "NORAD_CAT_ID": 28912, "ELEMENT_SET_NO": 999, "REV_AT_EPOCH": 500, "BSTAR": 0, "MEAN_MOTION_DOT": 1.43e-06, "MEAN_MOTION_DDOT": 0, "GROUP": "weather"}, "tle": {"line1": "1 28912U 05049B   25334.79993905  .00000143  00000+0  00000+0 0  9994", "line2": "2 28912   8.9104  56.0832 0003917 183.6616 163.7686  1.00270478  5002"}}, "geometry": {"type": "Point", "coordinates": [175.84037260160474, 7.741864256213203]}}, {"type": "Feature", "properties": {"norad_id": 29522, "name": "DMSP 5D-3 F17 (USA 191)", "group": "weather", "lat": -37.53067445905575, "lon": -12.417942303284486, "alt_km": 845.7444382311787, "timestamp": "2025-12-01T03:58:49.195136+00:00", "meta": {"OBJECT_NAME": "DMSP 5D-3 F17 (USA 191)", "OBJECT_ID": "2006-050A", "EPOCH": "2025-11-30T19:40:26.025024", "MEAN_MOTION": 14.14911278, "ECCENTRICITY": 0.0009123, "INCLINATION": 98.7396, "RA_OF_ASC_NODE": 340.4569, "ARG_OF_PERICENTER": 262.0906, "MEAN_ANOMALY": 97.9232, "EPHEMERIS_TYPE": 0, "CLASSIFICATION_TYPE": "U", "NORAD_CAT_ID": 29522, "ELEMENT_SET_NO": 999, "REV_AT_EPOCH": 98436, "BSTAR": 0.00012247, "MEAN_MOTION_DOT": 1.93e-06, "MEAN_MOTION_DDOT": 0, "GROUP": "weather"}, "tle": {"line1": "1 29522U 06050A   25334.81974566  .00000193  00000+0  12247-3 0  9995", "line2": "2 29522  98.7396 340.4569 0009123 262.0906  97.9232 14.14911278984365"}}, "geometry": {"type": "Point", "coordinates": [-12.417942303284486, -37.53067445905575]}}, {"type": "Feature", "properties": {"norad_id": 32958, "name": "FENGYUN 3A", "group": "weather", "lat": -24.544061162360794, "lon": 90.94272839076923, "alt_km": 837.271656342934, "timestamp": "2025-12-01T03:58:49.195172+00:00", "meta": {"OBJECT_NAME": "FENGYUN 3A", "OBJECT_ID": "2008-026A", "EPOCH": "2025-11-30T20:15:06.105888", "MEAN_MOTION": 14.1950831, "ECCENTRICITY": 0.0008482, "INCLINATION": 98.6679, "RA_OF_ASC_NODE": 274.6221, "ARG_OF_PERICENTER": 346.8209, "MEAN_ANOMALY": 13.2744, "EPHEMERIS_TYPE": 0, "CLASSIFICATION_TYPE": "U", "NORAD_CAT_ID": 32958, "ELEMENT_SET_NO": 999, "REV_AT_EPOCH": 90726, "BSTAR": 7.5773e-05, "MEAN_MOTION_DOT": 1.16e-06, "MEAN_MOTION_DDOT": 0, "GROUP": "weather"}, "tle": {"line1": "1 32958U 08026A   25334.84382067  .00000116  00000+0  75773-4 0  9998", "line2": "2 32958  98.6679 274.6221 0008482 346.8209  13.2744 14.19508310907269"}}, "geometry": {"type": "Point", "coordinates": [90.94272839076923, -24.544061162360794]}}, {"type": "Feature", "properties": {"norad_id": 35491, "name": "GOES 14", "group": "weather", "lat": -1.0261431108407404, "lon": 21.64721272014921, "alt_km": 35800.5885754398, "timestamp": "2025-12-01T03:58:49.195201+00:00", "meta": {"OBJECT_NAME": "GOES 14", "OBJECT_ID": "2009-033A", "EPOCH": "2025-11-30T15:02:22.655040", "MEAN_MOTION": 1.00272724, "ECCENTRICITY": 0.000407, "INCLINATION": 1.1649, "RA_OF_ASC_NODE": 85.552, "ARG_OF_PERICENTER": 147.8261, "MEAN_ANOMALY": 313.6246, "EPHEMERIS_TYPE": 0, "CLASSIFICATION_TYPE": "U", "NORAD_CAT_ID": 35491, "ELEMENT_SET_NO": 999, "REV_AT_EPOCH": 460, "BSTAR": 0, "MEAN_MOTION_DOT": -4.6e-07, "MEAN_MOTION_DDOT": 0, "GROUP": "weather"}, "tle": {"line1": "1 35491U 09033A   25334.62665110 -.00000046  00000+0  00000+0 0  9990", "line2": "2 35491   1.1649  85.5520 0004070 147.8261 313.6246  1.00272724  4600"}}, "geometry": {"type": "Point", "coordinates": [21.64721272014921, -1.0261431108407404]}}, {"type": "Feature", "properties": {"norad_id": 35951, "name": "DMSP 5D-3 F18 (USA 210)", "group": "weather", "lat": -15.588107817714189, "lon": 129.12490864416705, "alt_km": 849.7707345823628, "timestamp": "2025-12-01T03:58:49.195218+00:00", "meta": {"OBJECT_NAME": "DMSP 5D-3 F18 (USA 210)", "OBJECT_ID": "2009-057A", "EPOCH": "2025-11-30T20:16:12.842112", "MEAN_MOTION": 14.14757952, "ECCENTRICITY": 0.0012092, "INCLINATION": 98.8821, "RA_OF_ASC_NODE": 311.3057, "ARG_OF_PERICENTER": 93.6557, "MEAN_ANOMALY": 266.5999, "EPHEMERIS_TYPE": 0, "CLASSIFICATION_TYPE": "U", "NORAD_CAT_ID": 35951, "ELEMENT_SET_NO": 999, "REV_AT_EPOCH": 83154, "BSTAR": 0.00016346, "MEAN_MOTION_DOT": 2.71e-06, "MEAN_MOTION_DDOT": 0, "GROUP": "weather"}, "tle": {"line1": "1 35951U 09057A   25334.84459308  .00000271  00000+0  16346-3 0  9994", "line2": "2 35951  98.8821 311.3057 0012092  93.6557 266.5999 14.14757952831542"}}, "geometry": {"type": "Point", "coordinates": [129.12490864416705, -15.588107817714189]}}, {"type": "Feature", "properties": {"norad_id": 36411, "name": "EWS-G2 (GOES 15)", "group": "weather", "lat": 0.7343804812406177, "lon": -168.5595110766724, "alt_km": 35775.93604507632, "timestamp": "2025-12-01T03:58:49.195234+00:00", "meta": {"OBJECT_NAME": "EWS-G2 (GOES 15)", "OBJECT_ID": "2010-008A", "EPOCH": "2025-11-30T19:16:24.305376", "MEAN_MOTION": 1.00267656, "ECCENTRICITY": 0.0005829, "INCLINATION": 0.7815, "RA_OF_ASC_NODE": 86.0325, "ARG_OF_PERICENTER": 168.5694, "MEAN_ANOMALY": 165.9701, "EPHEMERIS_TYPE": 0, "CLASSIFICATION_TYPE": "U", "NORAD_CAT_ID": 36411, "ELEMENT_SET_NO": 999, "REV_AT_EPOCH": 5764, "BSTAR": 0, "MEAN_MOTION_DOT": 5.9e-07, "MEAN_MOTION_DDOT": 0, "GROUP": "weather"}, "tle": {"line1": "1 36411U 10008A   25334.80305909  .00000059  00000+0  00000+0 0  9997", "line2": "2 36411   0.7815  86.0325 0005829 168.5694 165.9701  1.00267656 57649"}}, "geometry": {"type": "Point", "coordinates": [-168.5595110766724, 0.7343804812406177]}}, {"type": "Feature", "properties": {"norad_id": 36744, "name": "COMS 1", "group": "weather", "lat": -0.020781498273772583, "lon": -101.85152289627824, "alt_km": 35782.29694159439, "timestamp": "2025-12-01T03:58:49.195249+00:00", "meta": {"OBJECT_NAME": "COMS 1", "OBJECT_ID": "2010-032A", "EPOCH": "2025-11-30T20:06:51.517728", "MEAN_MOTION": 1.00270896, "ECCENTRICITY": 9.69e-05, "INCLINATION": 4.3102, "RA_OF_ASC_NODE": 78.1294, "ARG_OF_PERICENTER": 175.9235, "MEAN_ANOMALY": 245.8063, "EPHEMERIS_TYPE": 0, "CLASSIFICATION_TYPE": "U", "NORAD_CAT_ID": 36744, "ELEMENT_SET_NO": 999, "REV_AT_EPOCH": 4910, "BSTAR": 0, "MEAN_MOTION_DOT": -3.22e-06, "MEAN_MOTION_DDOT": 0, "GROUP": "weather"}, "tle": {"line1": "1 36744U 10032A   25334.83809627 -.00000322  00000+0  00000+0 0  9996", "line2": "2 36744   4.3102  78.1294 0000969 175.9235 245.8063  1.00270896 49108"}}, "geometry": {"type": "Point", "coordinates": [-101.85152289627824, -0.020781498273772583]}}, {"type": "Feature", "properties": {"norad_id": 37214, "name": "FENGYUN 3B", "group": "weather", "lat": 20.417815046051295, "lon": -161.55923873774913, "alt_km": 853.1640102051542, "timestamp": "2025-12-01T03:58:49.195264+00:00", "meta": {"OBJECT_NAME": "FENGYUN 3B", "OBJECT_ID": "2010-059A", "EPOCH": "2025-11-30T20:58:05.257344", "MEAN_MOTION": 14.14784422, "ECCENTRICITY": 0.0022551, "INCLINATION": 98.9925, "RA_OF_ASC_NODE": 14.7672, "ARG_OF_PERICENTER": 31.1599, "MEAN_ANOMALY": 80.5628, "EPHEMERIS_TYPE": 0, "CLASSIFICATION_TYPE": "U", "NORAD_CAT_ID": 37214, "ELEMENT_SET_NO": 999, "REV_AT_EPOCH": 77938, "BSTAR": 7.4449e-05, "MEAN_MOTION_DOT": 9.8e-07, "MEAN_MOTION_DDOT": 0, "GROUP": "weather"}, "tle": {"line1": "1 37214U 10059A   25334.87367196  .00000098  00000+0  74449-4 0  9994", "line2": "2 37214  98.9925  14.7672 0022551  31.1599  80.5628 14.14784422779381"}}, "geometry": {"type": "Point", "coordinates": [-161.55923873774913, 20.417815046051295]}}, {"type": "Feature", "properties": {"norad_id": 37849, "name": "SUOMI NPP", "group": "weather", "lat": 16.25567092308451, "lon": 95.19395205493207, "alt_km": 826.3992197539355, "timestamp": "2025-12-01T03:58:49.195282+00:00", "meta": {"OBJECT_NAME": "SUOMI NPP", "OBJECT_ID": "2011-061A", "EPOCH": "2025-11-30T20:26:46.569696", "MEAN_MOTION": 14.19508682, "ECCENTRICITY": 0.0001792, "INCLINATION": 98.7755, "RA_OF_ASC_NODE": 272.3015, "ARG_OF_PERICENTER": 141.9113, "MEAN_ANOMALY": 218.219, "EPHEMERIS_TYPE": 0, "CLASSIFICATION_TYPE": "U", "NORAD_CAT_ID": 37849, "ELEMENT_SET_NO": 999, "REV_AT_EPOCH": 73030, "BSTAR": 7.6477e-05, "MEAN_MOTION_DOT": 1.17e-06, "MEAN_MOTION_DDOT": 0, "GROUP": "weather"}, "tle": {"line1": "1 37849U 11061A   25334.85192789  .00000117  00000+0  76477-4 0  9999", "line2": "2 37849  98.7755 272.3015 0001792 141.9113 218.2190 14.19508682730303"}}, "geometry": {"type": "Point", "coordinates": [95.19395205493207, 16.25567092308451]}}]}